[
    {
        "Altitude(m)": 624792.7375975725,
        "Argument of Periapsis(deg)": 0.0,
        "Eccentricity": 0.0,
        "Inclination(deg)": 60.0,
        "Latitude(deg)": -59.14698305681454,
        "Longitude(deg)": 94.02640603440219,
        "Mean Anomaly(deg)": -98.18180000000004,
        "RAAN(deg)": 300.0,
        "Satellite Name": "Test1 1336",
        "Satellite Number": 1336,
        "Semi-Major Axis(m)": 6980739.136638005,
        "Time(s)": 0
    },
    {
        "Altitude(m)": 624842.1297177199,
        "Argument of Periapsis(deg)": 0.00010418945913296404,
        "Eccentricity": 0.0,
        "Inclination(deg)": 60.0,
        "Latitude(deg)": -59.2890666309992,
        "Longitude(deg)": 95.15590666233058,
        "Mean Anomaly(deg)": -97.56169385453819,
        "RAAN(deg)": 299.99957995086027,
        "Satellite Name": "Test1 1336",
        "Satellite Number": 1336,
        "Semi-Major Axis(m)": 6980739.136638005,
        "Time(s)": 10
    }
]